[{"OBJECT_NAME":"ORBITER SN3","OBJECT_ID":"2023-084AE","EPOCH":"2026-03-09T23:12:21.976128","MEAN_MOTION":15.32943891,"ECCENTRICITY":0.00075889,"INCLINATION":97.61,"RA_OF_ASC_NODE":206.6768,"ARG_OF_PERICENTER":331.7947,"MEAN_ANOMALY":28.2883,"EPHEMERIS_TYPE":0,"CLASSIFICATION_TYPE":"U","NORAD_CAT_ID":56960,"ELEMENT_SET_NO":999,"REV_AT_EPOCH":15228,"BSTAR":0.00032835432,"MEAN_MOTION_DOT":0.00010378,"MEAN_MOTION_DDOT":0},{"OBJECT_NAME":"STARLINK-32199","OBJECT_ID":"2024-133V","EPOCH":"2026-03-09T21:36:04.023648","MEAN_MOTION":15.30188919,"ECCENTRICITY":0.00012337,"INCLINATION":53.1604,"RA_OF_ASC_NODE":296.0019,"ARG_OF_PERICENTER":94.7268,"MEAN_ANOMALY":265.3873,"EPHEMERIS_TYPE":0,"CLASSIFICATION_TYPE":"U","NORAD_CAT_ID":60320,"ELEMENT_SET_NO":999,"REV_AT_EPOCH":9167,"BSTAR":4.2697301e-5,"MEAN_MOTION_DOT":9.05e-6,"MEAN_MOTION_DDOT":0}]
